0 COSMOS 886 DEB
1 09816U 76126AC  13280.47453283  .00001228  00000-0  31748-3 0  2022
2 09816 065.8031 309.5038 0702595 131.5473 234.8068 13.61135168770324
0 COSMOS 886 DEB
1 09816U 76126AC  13282.53185699  .00001332  00000-0  34233-3 0  2033
2 09816 065.8022 304.4828 0702377 130.5379 235.9059 13.61148074770600
0 COSMOS 886 DEB
1 09816U 76126AC  13287.08730643  .00002020  00000-0  50625-3 0  2053
2 09816 065.8022 293.3714 0702021 128.3324 238.3005 13.61157741771229
0 COSMOS 886 DEB
1 09816U 76126AC  13288.40984695  .00002778  00000-0  68624-3 0  2067
2 09816 065.8021 290.1445 0701938 127.6900 238.9962 13.61167079771405
0 COSMOS 886 DEB
1 09816U 76126AC  13291.42227224  .00002422  00000-0  60215-3 0  2076
2 09816 065.8026 282.7943 0701718 126.2260 240.5778 13.61179941771810
0 COSMOS 886 DEB
1 09816U 76126AC  13294.14077860  .00002731  00000-0  67614-3 0  2081
2 09816 065.8032 276.1621 0701534 124.9023 242.0039 13.61188348772184
